algorithm,apogee,argOfPerigee,bStar,classificationMarking,elset_created_at,elset_created_by,dataMode,eccentricity,idElset,idOnOrbit,inclination,line1,line2,meanAnomaly,meanMotion,meanMotionDDot,meanMotionDot,origNetwork,perigee,period,raan,revNo,satNo,semiMajorAxis,source,__START_AT,__END_AT,COUNTRY,LAUNCH,LAUNCH_NUM,LAUNCH_PIECE,NORAD_CAT_ID,OBJECT_ID,OBJECT_NAME,OBJECT_NUMBER,OBJECT_TYPE,RCS_SIZE,SATNAME,SITE,satcat_current_fetch_date
SGP4,6926.322,78.2473,3.0053E-4,U,2024-02-01T18:05:15.594Z,system.ob-ingest,REAL,1.462E-4,c3af3969-d145-474f-8bcd-2ebd0d14a2a0,47651,53.0542,1 47651U 21012AH  24031.96205724 +.00004199 +00000+0 +30053-3 0 99999,2 47651  53.0542 278.1302 0001462  78.2473 281.8680 15.06412810164272,281.868,15.0641281,0.0,4.199E-5,OPS1,6924.297,95.591,278.1302,16427,47651,6925.309,18th SPCS,2024-01-31T23:05:21.745536Z,2024-02-01T19:47:22.600032Z,US,2021-02-16,12,AH,47651,2021-012AH,STARLINK-2035,47651,PAYLOAD,LARGE,STARLINK-2035,AFETR,2024-08-21
SGP4,6926.285,94.0228,6.114E-5,U,2024-01-31T23:05:15.471Z,system.ob-ingest,REAL,1.339E-4,8bbbb095-f884-41b5-914b-a2a6b52854bb,47743,53.0539,1 47743U 21017X   24031.37505908 +.00000629 +00000+0 +61140-4 0 99994,2 47743  53.0539  50.7183 0001339  94.0228 266.0914 15.06396888162097,266.0914,15.06396888,0.0,6.29E-6,OPS1,6924.431,95.592,50.7183,16209,47743,6925.358,18th SPCS,2024-01-31T09:00:05.104512Z,2024-02-01T10:28:43.111776Z,US,2021-03-04,17,X,47743,2021-017X,STARLINK-2157,47743,PAYLOAD,LARGE,STARLINK-2157,AFETR,2024-08-21
SGP4,6926.323,98.7369,2.0442E-5,U,2024-01-31T23:05:15.476Z,system.ob-ingest,REAL,1.401E-4,f4c89266-e892-4d1d-b752-b91e2e64df42,47748,53.0549,1 47748U 21017AC  24031.36399726 +.00000023 +00000+0 +20442-4 0 99995,2 47748  53.0549  50.7666 0001401  98.7369 261.3778 15.06398488162067,261.3778,15.06398488,0.0,2.3E-7,OPS1,6924.383,95.592,50.7666,16206,47748,6925.353,18th SPCS,2024-01-31T08:44:09.363264Z,2024-02-01T10:12:48.318336Z,US,2021-03-04,17,AC,47748,2021-017AC,STARLINK-2162,47748,PAYLOAD,LARGE,STARLINK-2162,AFETR,2024-08-21
SGP4,6926.315,100.7147,8.0234E-5,U,2024-02-01T05:05:14.270Z,system.ob-ingest,REAL,1.393E-4,2786babc-8683-47fd-8060-43ecd8d67ffe,48095,53.0564,1 48095U 21027D   24031.94176975 +.00000914 +00000+0 +80234-4 0 99999,2 48095  53.0564  18.1722 0001393 100.7147 259.3999 15.06399348156712,259.3999,15.06399348,0.0,9.14E-6,OPS1,6924.386,95.592,18.1722,15671,48095,6925.351,18th SPCS,2024-01-31T22:36:08.906400Z,2024-02-01T04:58:18.426144Z,US,2021-04-07,27,D,48095,2021-027D,STARLINK-2414,48095,PAYLOAD,LARGE,STARLINK-2414,AFETR,2024-08-21
SGP4,6931.216,92.7159,2.7983E-4,U,2024-02-01T05:05:13.942Z,system.ob-ingest,REAL,1.293E-4,10947f14-3491-4652-b2bd-8eaab930422e,48286,53.0536,1 48286U 21036L   24031.74366708 +.00003715 +00000+0 +27983-3 0 99997,2 48286  53.0536 288.9431 0001293  92.7159 267.3977 15.04779431152566,267.3977,15.04779431,0.0,3.715E-5,OPS1,6929.424,95.695,288.9431,15256,48286,6930.32,18th SPCS,2024-01-31T17:50:52.835712Z,2024-02-02T00:08:05.896320Z,US,2021-04-29,36,L,48286,2021-036L,STARLINK-2547,48286,PAYLOAD,LARGE,STARLINK-2547,AFETR,2024-08-21
SGP4,6926.299,110.3003,9.6996E-5,U,2024-02-01T07:05:12.831Z,system.ob-ingest,REAL,1.45E-4,ccbd6802-e3a2-4cfc-acb3-4c5ab51614ca,48296,53.0547,1 48296U 21036W   24031.98323233 +.00001164 +00000+0 +96996-4 0 99997,2 48296  53.0547 287.9853 0001450 110.3003 249.8141 15.06417486153184,249.8141,15.06417486,0.0,1.164E-5,OPS1,6924.291,95.591,287.9853,15318,48296,6925.295,18th SPCS,2024-01-31T23:35:51.273312Z,2024-02-01T23:28:57.196128Z,US,2021-04-29,36,W,48296,2021-036W,STARLINK-2546,48296,PAYLOAD,LARGE,STARLINK-2546,AFETR,2024-08-21
SGP4,6926.326,98.1027,7.3069E-4,U,2024-01-31T23:05:15.466Z,system.ob-ingest,REAL,1.43E-4,656ebfe3-108b-4ce9-9048-7f937118f5de,48331,53.0562,1 48331U 21036BH  24031.77867034 +.00010620 +00000+0 +73069-3 0 99998,2 48331  53.0562 308.9008 0001430  98.1027 262.0124 15.06404106152883,262.0124,15.06404106,0.0,1.062E-4,OPS1,6924.346,95.592,308.9008,15288,48331,6925.336,18th SPCS,2024-01-31T18:41:17.117376Z,2024-02-01T01:03:26.372736Z,US,2021-04-29,36,BH,48331,2021-036BH,STARLINK-2514,48331,PAYLOAD,LARGE,STARLINK-2514,AFETR,2024-08-21
SGP4,6926.485,82.3725,1.087E-5,U,2024-02-01T05:05:14.101Z,system.ob-ingest,REAL,1.628E-4,c8bd1f7e-1b1a-48c3-a7fc-f3b6676b10c8,48369,53.0544,1 48369U 21038S   24031.86989147 -.00000120 +00000+0 +10870-4 0 99998,2 48369  53.0544 198.4987 0001628  82.3725 277.7449 15.06397066151430,277.7449,15.06397066,0.0,-1.2E-6,OPS1,6924.23,95.592,198.4987,15143,48369,6925.358,18th SPCS,2024-01-31T20:52:38.623008Z,2024-02-01T11:12:29.735712Z,US,2021-05-04,38,S,48369,2021-038S,STARLINK-2641,48369,PAYLOAD,LARGE,STARLINK-2641,AFETR,2024-08-21
SGP4,6926.574,78.3852,8.4187E-5,U,2024-01-31T15:05:13.567Z,system.ob-ingest,REAL,1.758E-4,90bde97a-dc03-4b06-846c-075142d7c737,48470,53.0557,1 48470U 21040AU  24031.41926952 +.00000972 +00000+0 +84187-4 0 99996,2 48470  53.0557  40.5136 0001758  78.3852 281.7334 15.06397281151976,281.7334,15.06397281,0.0,9.72E-6,OPS1,6924.139,95.592,40.5136,15197,48470,6925.357,18th SPCS,2024-01-31T10:03:44.886528Z,2024-02-01T03:34:40.195776Z,US,2021-05-09,40,AU,48470,2021-040AU,STARLINK-2675,48470,PAYLOAD,LARGE,STARLINK-2675,AFETR,2024-08-21
SGP4,6926.232,102.2856,2.7342E-4,U,2024-01-31T07:05:13.323Z,system.ob-ingest,REAL,1.258E-4,9b005272-d1ea-417a-97fd-218a5b7a56f2,48588,53.0555,1 48588U 21041AM  24031.16404338 +.00003793 +00000+0 +27342-3 0 99991,2 48588  53.0555 341.6995 0001258 102.2856 257.8274 15.06396047149814,257.8274,15.06396047,0.0,3.793E-5,OPS1,6924.489,95.592,341.6995,14981,48588,6925.361,18th SPCS,2024-01-31T03:56:13.348032Z,2024-02-01T03:49:18.321312Z,US,2021-05-15,41,AM,48588,2021-041AM,STARLINK-2244,48588,PAYLOAD,LARGE,STARLINK-2244,AFETR,2024-08-21
SGP4,6926.301,96.0344,8.5216E-4,U,2024-02-01T05:05:13.905Z,system.ob-ingest,REAL,1.42E-4,72f087e7-1206-4d83-ae99-53d43d61c998,48658,53.0566,1 48658U 21044W   24031.82842835 +.00012438 +00000+0 +85216-3 0 99993,2 48658  53.0566 328.6833 0001420  96.0344 264.0807 15.06410243147975,264.0807,15.06410243,0.0,1.2438E-4,OPS1,6924.334,95.591,328.6833,14797,48658,6925.317,18th SPCS,2024-01-31T19:52:56.209440Z,2024-02-01T02:15:05.368896Z,US,2021-05-26,44,W,48658,2021-044W,STARLINK-2647,48658,PAYLOAD,LARGE,STARLINK-2647,AFETR,2024-08-21
SGP4,6918.906,100.2428,-7.9375E-5,U,2024-01-31T15:05:13.725Z,system.ob-ingest,REAL,1.506E-4,73d2b72a-772d-4654-9ce2-f47faac4bbf6,49411,53.2176,1 49411U 21104D   24031.32801627 -.00001551 +00000+0 -79375-4 0 99993,2 49411  53.2176  68.4314 0001506 100.2428 259.8734 15.08845360123857,259.8734,15.0884536,0.0,-1.551E-5,OPS1,6916.822,95.437,68.4314,12385,49411,6917.864,18th SPCS,2024-01-31T07:52:20.605728Z,2024-02-01T10:53:54.405024Z,US,2021-11-13,104,D,49411,2021-104D,STARLINK-3162,49411,PAYLOAD,LARGE,STARLINK-3162,AFETR,2024-08-21
SGP4,6919.127,114.377,-8.6462E-6,U,2024-01-31T15:05:13.735Z,system.ob-ingest,REAL,1.813E-4,ef0813c3-e598-402e-a4d8-5dd3e7dc7884,49415,53.2168,1 49415U 21104H   24031.38689438 -.00000426 +00000+0 -86462-5 0 99993,2 49415  53.2168  68.1608 0001813 114.3770 245.7412 15.08842523123868,245.7412,15.08842523,0.0,-4.26E-6,OPS1,6916.618,95.437,68.1608,12386,49415,6917.873,18th SPCS,2024-01-31T09:17:07.674432Z,2024-02-01T09:07:55.374528Z,US,2021-11-13,104,H,49415,2021-104H,STARLINK-3159,49415,PAYLOAD,LARGE,STARLINK-3159,AFETR,2024-08-21
SGP4,6919.132,84.6768,-1.6173E-6,U,2024-01-31T15:05:13.736Z,system.ob-ingest,REAL,1.855E-4,c608a458-ecb0-435d-a02b-2e4cd1d7fd6b,49417,53.2174,1 49417U 21104K   24031.41629211 -.00000314 +00000+0 -16173-5 0 99990,2 49417  53.2174  67.6867 0001855  84.6768 275.4436 15.08850398123898,275.4436,15.08850398,0.0,-3.14E-6,OPS1,6916.565,95.437,67.6867,12389,49417,6917.849,18th SPCS,2024-01-31T09:59:27.638304Z,2024-02-01T08:14:52.087488Z,US,2021-11-13,104,K,49417,2021-104K,STARLINK-3154,49417,PAYLOAD,LARGE,STARLINK-3154,AFETR,2024-08-21
SGP4,6919.11,107.9411,2.3645E-4,U,2024-01-31T15:05:13.780Z,system.ob-ingest,REAL,1.766E-4,8c67c2fd-21f4-4d2d-a26c-2cb4349b34f8,49444,53.2175,1 49444U 21104AN  24031.49549599 +.00003477 +00000+0 +23645-3 0 99999,2 49444  53.2175  57.6857 0001766 107.9411 252.1774 15.08837534124011,252.1774,15.08837534,0.0,3.477E-5,OPS1,6916.666,95.438,57.6857,12401,49444,6917.888,18th SPCS,2024-01-31T11:53:30.853536Z,2024-02-01T10:08:55.109184Z,US,2021-11-13,104,AN,49444,2021-104AN,STARLINK-3126,49444,PAYLOAD,LARGE,STARLINK-3126,AFETR,2024-08-21
SGP4,6919.139,96.4266,2.7016E-5,U,2024-01-31T15:05:13.638Z,system.ob-ingest,REAL,1.837E-4,69d76d94-687d-43d3-8eec-9310c82a5646,50205,53.2169,1 50205U 21125BB  24031.48444984 +.00000142 +00000+0 +27016-4 0 99993,2 50205  53.2169  57.7268 0001837  96.4266 263.6935 15.08844097120718,263.6935,15.08844097,0.0,1.42E-6,OPS1,6916.597,95.437,57.7268,12071,50205,6917.868,18th SPCS,2024-01-31T11:37:36.466176Z,2024-02-01T11:28:24.387456Z,US,2021-12-18,125,BB,50205,2021-125BB,STARLINK-3260,50205,PAYLOAD,LARGE,STARLINK-3260,AFWTR,2024-08-21
SGP4,6918.851,96.5186,1.1222E-4,U,2024-01-31T23:05:16.364Z,system.ob-ingest,REAL,1.372E-4,38dec7d7-b749-450f-a889-af04922d1e29,51717,53.2167,1 51717U 22016D   24031.42926222 +.00001498 +00000+0 +11222-3 0 99992,2 51717  53.2167 178.0615 0001372  96.5186 263.5962 15.08832936107447,263.5962,15.08832936,0.0,1.498E-5,OPS1,6916.953,95.438,178.0615,10744,51717,6917.902,18th SPCS,2024-01-31T10:18:08.255808Z,2024-02-01T10:08:55.695840Z,US,2022-02-21,16,D,51717,2022-016D,STARLINK-3445,51717,PAYLOAD,LARGE,STARLINK-3445,AFETR,2024-08-21
